start=new Date('2023-03-21T00:00:00.000Z').valueOf();
sats=[{"NORAD_CAT_ID":"45053","RCS_SIZE":"LARGE","MEAN_MOTION_DOT":"0.00012977","SITE":"AFETR","ARG_OF_PERICENTER":"43.0041","LAUNCH_DATE":"2020-01-29","OBJECT_TYPE":"PAYLOAD","EPHEMERIS_TYPE":"0","MEAN_MOTION":"15.29271979","TLE_LINE1":"1 45053U 20006K   23079.70860833  .00012977  00000-0  46218-3 0  9991","CENTER_NAME":"EARTH","MEAN_MOTION_DDOT":"0.0000000000000","CLASSIFICATION_TYPE":"U","ELEMENT_SET_NO":"999","BSTAR":"0.00046218000000","TIME_SYSTEM":"UTC","REV_AT_EPOCH":"17335","GP_ID":"228544261","INCLINATION":"52.9882","REF_FRAME":"TEME","ECCENTRICITY":"0.00073490","APOAPSIS":"483.028","RA_OF_ASC_NODE":"83.3096","TLE_LINE2":"2 45053  52.9882  83.3096 0007349  43.0041 317.1530 15.29271979173358","PERIOD":"94.162","FILE":"3866115","PERIAPSIS":"472.951","OBJECT_NAME":"STARLINK-1155","COUNTRY_CODE":"US","DECAY_DATE":null,"MEAN_ELEMENT_THEORY":"SGP4","MEAN_ANOMALY":"317.1530","EPOCH":"2023-03-20T17:00:23.759712","SEMIMAJOR_AXIS":"6856.124","OBJECT_ID":"2020-006K"},{"DECAY_DATE":null,"COUNTRY_CODE":"US","SEMIMAJOR_AXIS":"6925.349","OBJECT_ID":"2020-006L","MEAN_ELEMENT_THEORY":"SGP4","EPOCH":"2023-03-20T19:52:17.419296","MEAN_ANOMALY":"288.0531","TLE_LINE2":"2 45054  53.0514 116.7499 0001596  72.0632 288.0531 15.06399769172941","PERIOD":"95.592","INCLINATION":"53.0514","REF_FRAME":"TEME","RA_OF_ASC_NODE":"116.7499","APOAPSIS":"548.320","ECCENTRICITY":"0.00015960","OBJECT_NAME":"STARLINK-1156","FILE":"3866115","PERIAPSIS":"546.109","CENTER_NAME":"EARTH","TIME_SYSTEM":"UTC","GP_ID":"228544511","REV_AT_EPOCH":"17294","MEAN_MOTION_DDOT":"0.0000000000000","ELEMENT_SET_NO":"999","BSTAR":"0.00148400000000","CLASSIFICATION_TYPE":"U","MEAN_MOTION_DOT":"0.00021892","SITE":"AFETR","NORAD_CAT_ID":"45054","RCS_SIZE":"LARGE","EPHEMERIS_TYPE":"0","MEAN_MOTION":"15.06399769","TLE_LINE1":"1 45054U 20006L   23079.82797939  .00021892  00000-0  14840-2 0  9992","LAUNCH_DATE":"2020-01-29","ARG_OF_PERICENTER":"72.0632","OBJECT_TYPE":"PAYLOAD"},{"CENTER_NAME":"EARTH","ELEMENT_SET_NO":"999","MEAN_MOTION_DDOT":"0.0000000000000","CLASSIFICATION_TYPE":"U","BSTAR":"0.00148760000000","TIME_SYSTEM":"UTC","REV_AT_EPOCH":"17288","GP_ID":"228512462","NORAD_CAT_ID":"45057","RCS_SIZE":"LARGE","MEAN_MOTION_DOT":"0.00021944","SITE":"AFETR","LAUNCH_DATE":"2020-01-29","ARG_OF_PERICENTER":"88.6618","OBJECT_TYPE":"PAYLOAD","EPHEMERIS_TYPE":"0","MEAN_MOTION":"15.06397214","TLE_LINE1":"1 45057U 20006P   23079.37829942  .00021944  00000-0  14876-2 0  9992","COUNTRY_CODE":"US","DECAY_DATE":null,"MEAN_ELEMENT_THEORY":"SGP4","MEAN_ANOMALY":"271.4519","EPOCH":"2023-03-20T09:04:45.069888","SEMIMAJOR_AXIS":"6925.357","OBJECT_ID":"2020-006P","INCLINATION":"53.0520","REF_FRAME":"TEME","APOAPSIS":"548.120","RA_OF_ASC_NODE":"118.7717","ECCENTRICITY":"0.00012970","PERIOD":"95.592","TLE_LINE2":"2 45057  53.0520 118.7717 0001297  88.6618 271.4519 15.06397214172889","FILE":"3865912","PERIAPSIS":"546.324","OBJECT_NAME":"STARLINK-1159"},{"CENTER_NAME":"EARTH","GP_ID":"228544011","REV_AT_EPOCH":"17295","TIME_SYSTEM":"UTC","MEAN_MOTION_DDOT":"0.0000000000000","BSTAR":"0.00149520000000","CLASSIFICATION_TYPE":"U","ELEMENT_SET_NO":"999","SITE":"AFETR","MEAN_MOTION_DOT":"0.00022066","NORAD_CAT_ID":"45058","RCS_SIZE":"LARGE","TLE_LINE1":"1 45058U 20006Q   23079.83534793  .00022066  00000-0  14952-2 0  9992","MEAN_MOTION":"15.06411235","EPHEMERIS_TYPE":"0","OBJECT_TYPE":"PAYLOAD","LAUNCH_DATE":"2020-01-29","ARG_OF_PERICENTER":"103.9985","DECAY_DATE":null,"COUNTRY_CODE":"US","OBJECT_ID":"2020-006Q","SEMIMAJOR_AXIS":"6925.314","MEAN_ANOMALY":"256.1169","EPOCH":"2023-03-20T20:02:54.061152","MEAN_ELEMENT_THEORY":"SGP4","TLE_LINE2":"2 45058  53.0513 116.7173 0001481 103.9985 256.1169 15.06411235172958","PERIOD":"95.591","APOAPSIS":"548.205","RA_OF_ASC_NODE":"116.7173","ECCENTRICITY":"0.00014810","REF_FRAME":"TEME","INCLINATION":"53.0513","OBJECT_NAME":"STARLINK-1162","PERIAPSIS":"546.153","FILE":"3866115"},{"OBJECT_TYPE":"PAYLOAD","LAUNCH_DATE":"2020-01-29","ARG_OF_PERICENTER":"104.5735","EPHEMERIS_TYPE":"0","TLE_LINE1":"1 45059U 20006R   23079.79111415  .00020959  00000-0  14218-2 0  9994","MEAN_MOTION":"15.06399326","RCS_SIZE":"LARGE","NORAD_CAT_ID":"45059","SITE":"AFETR","MEAN_MOTION_DOT":"0.00020959","MEAN_MOTION_DDOT":"0.0000000000000","ELEMENT_SET_NO":"999","CLASSIFICATION_TYPE":"U","BSTAR":"0.00142180000000","TIME_SYSTEM":"UTC","GP_ID":"228543761","REV_AT_EPOCH":"17294","CENTER_NAME":"EARTH","FILE":"3866115","PERIAPSIS":"546.281","OBJECT_NAME":"STARLINK-1165","INCLINATION":"53.0518","APOAPSIS":"548.151","ECCENTRICITY":"0.00013500","RA_OF_ASC_NODE":"116.9154","REF_FRAME":"TEME","TLE_LINE2":"2 45059  53.0518 116.9154 0001350 104.5735 255.5404 15.06399326172940","PERIOD":"95.592","MEAN_ELEMENT_THEORY":"SGP4","EPOCH":"2023-03-20T18:59:12.262560","MEAN_ANOMALY":"255.5404","SEMIMAJOR_AXIS":"6925.351","OBJECT_ID":"2020-006R","COUNTRY_CODE":"US","DECAY_DATE":null},{"CENTER_NAME":"EARTH","GP_ID":"228545011","REV_AT_EPOCH":"17291","TIME_SYSTEM":"UTC","MEAN_MOTION_DDOT":"0.0000000000000","BSTAR":"0.00015533000000","CLASSIFICATION_TYPE":"U","ELEMENT_SET_NO":"999","MEAN_MOTION_DOT":"0.00002033","SITE":"AFETR","RCS_SIZE":"LARGE","NORAD_CAT_ID":"45060","MEAN_MOTION":"15.06400979","TLE_LINE1":"1 45060U 20006S   23079.58838512  .00002033  00000-0  15533-3 0  9992","EPHEMERIS_TYPE":"0","ARG_OF_PERICENTER":"79.2340","LAUNCH_DATE":"2020-01-29","OBJECT_TYPE":"PAYLOAD","DECAY_DATE":null,"COUNTRY_CODE":"US","OBJECT_ID":"2020-006S","SEMIMAJOR_AXIS":"6925.346","MEAN_ANOMALY":"280.8765","EPOCH":"2023-03-20T14:07:16.474368","MEAN_ELEMENT_THEORY":"SGP4","TLE_LINE2":"2 45060  53.0514 117.8246 0001029  79.2340 280.8765 15.06400979172918","PERIOD":"95.592","REF_FRAME":"TEME","RA_OF_ASC_NODE":"117.8246","APOAPSIS":"547.923","ECCENTRICITY":"0.00010290","INCLINATION":"53.0514","OBJECT_NAME":"STARLINK-1166","PERIAPSIS":"546.498","FILE":"3866115"},{"OBJECT_ID":"2020-006T","SEMIMAJOR_AXIS":"6925.324","MEAN_ANOMALY":"284.9820","EPOCH":"2023-03-20T19:04:30.561024","MEAN_ELEMENT_THEORY":"SGP4","DECAY_DATE":null,"COUNTRY_CODE":"US","OBJECT_NAME":"STARLINK-1169","PERIAPSIS":"546.138","FILE":"3866115","TLE_LINE2":"2 45061  53.0545 116.8973 0001518  75.1337 284.9820 15.06407897172949","PERIOD":"95.592","APOAPSIS":"548.241","ECCENTRICITY":"0.00015180","RA_OF_ASC_NODE":"116.8973","REF_FRAME":"TEME","INCLINATION":"53.0545","GP_ID":"228544757","REV_AT_EPOCH":"17294","TIME_SYSTEM":"UTC","MEAN_MOTION_DDOT":"0.0000000000000","BSTAR":"0.00134090000000","ELEMENT_SET_NO":"999","CLASSIFICATION_TYPE":"U","CENTER_NAME":"EARTH","TLE_LINE1":"1 45061U 20006T   23079.79479816  .00019752  00000-0  13409-2 0  9999","MEAN_MOTION":"15.06407897","EPHEMERIS_TYPE":"0","OBJECT_TYPE":"PAYLOAD","LAUNCH_DATE":"2020-01-29","ARG_OF_PERICENTER":"75.1337","SITE":"AFETR","MEAN_MOTION_DOT":"0.00019752","RCS_SIZE":"LARGE","NORAD_CAT_ID":"45061"},{"TLE_LINE1":"1 45062U 20006U   23079.51466909  .00020039  00000-0  13608-2 0  9990","MEAN_MOTION":"15.06387149","EPHEMERIS_TYPE":"0","OBJECT_TYPE":"PAYLOAD","ARG_OF_PERICENTER":"106.6715","LAUNCH_DATE":"2020-01-29","SITE":"AFETR","MEAN_MOTION_DOT":"0.00020039","NORAD_CAT_ID":"45062","RCS_SIZE":"LARGE","REV_AT_EPOCH":"17290","GP_ID":"228512712","TIME_SYSTEM":"UTC","ELEMENT_SET_NO":"999","MEAN_MOTION_DDOT":"0.0000000000000","CLASSIFICATION_TYPE":"U","BSTAR":"0.00136080000000","CENTER_NAME":"EARTH","OBJECT_NAME":"STARLINK-1171","PERIAPSIS":"546.272","FILE":"3865912","TLE_LINE2":"2 45062  53.0514 118.1565 0001416 106.6715 253.4429 15.06387149172904","PERIOD":"95.593","ECCENTRICITY":"0.00014160","APOAPSIS":"548.234","RA_OF_ASC_NODE":"118.1565","REF_FRAME":"TEME","INCLINATION":"53.0514","OBJECT_ID":"2020-006U","SEMIMAJOR_AXIS":"6925.388","EPOCH":"2023-03-20T12:21:07.409376","MEAN_ANOMALY":"253.4429","MEAN_ELEMENT_THEORY":"SGP4","DECAY_DATE":null,"COUNTRY_CODE":"US"},{"EPHEMERIS_TYPE":"0","TLE_LINE1":"1 45064U 20006W   23079.46122354  .00001846  00000-0  14279-3 0  9990","MEAN_MOTION":"15.06397682","OBJECT_TYPE":"PAYLOAD","LAUNCH_DATE":"2020-01-29","ARG_OF_PERICENTER":"101.8862","SITE":"AFETR","MEAN_MOTION_DOT":"0.00001846","NORAD_CAT_ID":"45064","RCS_SIZE":"LARGE","TIME_SYSTEM":"UTC","REV_AT_EPOCH":"17317","GP_ID":"228513459","BSTAR":"0.00014279000000","MEAN_MOTION_DDOT":"0.0000000000000","CLASSIFICATION_TYPE":"U","ELEMENT_SET_NO":"999","CENTER_NAME":"EARTH","OBJECT_NAME":"STARLINK-1133","FILE":"3865912","PERIAPSIS":"546.103","PERIOD":"95.592","TLE_LINE2":"2 45064  53.0520  98.3959 0001614 101.8862 258.2308 15.06397682173171","INCLINATION":"53.0520","APOAPSIS":"548.338","RA_OF_ASC_NODE":"98.3959","ECCENTRICITY":"0.00016140","REF_FRAME":"TEME","SEMIMAJOR_AXIS":"6925.356","OBJECT_ID":"2020-006W","MEAN_ELEMENT_THEORY":"SGP4","MEAN_ANOMALY":"258.2308","EPOCH":"2023-03-20T11:04:09.713856","DECAY_DATE":null,"COUNTRY_CODE":"US"},{"OBJECT_NAME":"STARLINK-1139","PERIAPSIS":"546.065","FILE":"3866115","TLE_LINE2":"2 45065  53.0521  97.4854 0001645  93.2363 266.8815 15.06403095173209","PERIOD":"95.592","APOAPSIS":"548.343","ECCENTRICITY":"0.00016450","RA_OF_ASC_NODE":"97.4854","REF_FRAME":"TEME","INCLINATION":"53.0521","OBJECT_ID":"2020-006X","SEMIMAJOR_AXIS":"6925.339","MEAN_ANOMALY":"266.8815","EPOCH":"2023-03-20T15:56:05.388000","MEAN_ELEMENT_THEORY":"SGP4","DECAY_DATE":null,"COUNTRY_CODE":"US","TLE_LINE1":"1 45065U 20006X   23079.66395125  .00008732  00000-0  60431-3 0  9993","MEAN_MOTION":"15.06403095","EPHEMERIS_TYPE":"0","OBJECT_TYPE":"PAYLOAD","ARG_OF_PERICENTER":"93.2363","LAUNCH_DATE":"2020-01-29","SITE":"AFETR","MEAN_MOTION_DOT":"0.00008732","NORAD_CAT_ID":"45065","RCS_SIZE":"LARGE","GP_ID":"228544512","REV_AT_EPOCH":"17320","TIME_SYSTEM":"UTC","ELEMENT_SET_NO":"999","MEAN_MOTION_DDOT":"0.0000000000000","BSTAR":"0.00060431000000","CLASSIFICATION_TYPE":"U","CENTER_NAME":"EARTH"}];
